OBJECT_NAME,OBJECT_ID,EPOCH,MEAN_MOTION,ECCENTRICITY,INCLINATION,RA_OF_ASC_NODE,ARG_OF_PERICENTER,MEAN_ANOMALY,EPHEMERIS_TYPE,CLASSIFICATION_TYPE,NORAD_CAT_ID,ELEMENT_SET_NO,REV_AT_EPOCH,BSTAR,MEAN_MOTION_DOT,MEAN_MOTION_DDOT
ELEKTRO-L 3,2019-095A,2026-06-26T12:54:56.877984,1.00272481,.0001516,0.2811,81.9651,2.5316,99.8706,0,U,44903,999,2380,0,-.85E-6,0
SHIJIAN-20 (SJ-20),2019-097A,2026-06-26T05:55:19.595712,1.00273182,.0015456,4.9414,74.9572,54.8421,278.1653,0,U,44910,999,2378,0,.142E-5,0
TJS-5,2020-002A,2026-06-26T07:55:56.896896,1.00270904,.0007969,0.0163,29.0348,21.9852,89.9240,0,U,44978,999,2380,0,-.331E-5,0
GSAT-30,2020-005A,2026-06-26T16:22:09.430176,1.00270898,.0003765,0.0193,22.0905,63.4226,157.8545,0,U,45026,999,2360,0,0,0
EUTELSAT KONNECT,2020-005B,2026-06-26T12:35:05.656128,1.00270027,.0001766,0.0722,94.6619,125.3972,250.5602,0,U,45027,999,2443,0,.6E-6,0
JCSAT-17,2020-013A,2026-06-26T17:09:38.585952,1.00271805,.0003176,5.3917,356.9654,99.8761,211.4217,0,U,45245,999,2332,0,-.305E-5,0
GEO-KOMPSAT-2B,2020-013B,2026-06-26T16:35:09.494304,1.00273043,.0000078,0.0410,227.0363,209.9871,214.8343,0,U,45246,999,2337,0,-.332E-5,0
BEIDOU-3 G2,2020-017A,2026-06-26T18:03:55.979136,1.00272051,.0002541,2.8837,47.5039,38.6328,179.8110,0,U,45344,999,2335,0,-.132E-5,0
AEHF-6 (USA 298),2020-022B,2026-06-26T16:37:46.742304,1.00268610,.0042579,2.5276,301.2843,17.2776,343.4159,0,U,45465,999,2310,0,-.285E-5,0
BEIDOU-3 G3,2020-040A,2026-06-26T18:12:44.409312,1.00274671,.0002643,2.4710,67.4792,328.6673,262.4520,0,U,45807,999,2216,0,-.345E-5,0
APSTAR-6D,2020-045A,2026-06-26T06:20:42.604800,1.00272663,.0001972,0.0504,104.2604,333.2817,66.0426,0,U,45863,999,2195,0,-.306E-5,0
KOREASAT 116,2020-048A,2026-06-26T16:31:39.829152,1.00271902,.0001205,0.0154,358.1525,109.4237,171.3701,0,U,45920,999,2173,0,-.351E-5,0
EXPRESS 103,2020-053A,2026-06-26T16:26:01.559328,1.00272557,.0000567,0.0167,280.4345,46.9503,290.4287,0,U,45985,999,2174,0,-.269E-5,0
EXPRESS 80,2020-053B,2026-06-26T00:23:29.224608,1.00271278,.0002018,0.0206,335.8847,232.3281,151.7763,0,U,45986,999,2172,0,0,0
BSAT-4B,2020-056A,2026-06-24T00:55:38.709408,1.00271625,.0004252,0.0287,148.8479,327.9577,279.1306,0,U,46112,999,2145,0,-.343E-5,0
MEV-2,2020-056B,2026-06-26T17:40:51.294720,1.00270839,.0000164,0.0279,285.5120,186.0316,67.5246,0,U,46113,999,8080,0,0,0
GALAXY 30 (G-30),2020-056C,2026-06-26T15:22:53.277024,1.00270787,.0002295,0.0274,17.4127,76.1713,286.8850,0,U,46114,999,2138,0,0,0
TIANTONG-1 2,2020-082A,2026-06-26T18:16:51.514176,1.00272592,.0001727,0.7784,328.9219,116.8863,228.2291,0,U,46916,999,2074,0,-.344E-5,0
LUCAS (JDRS-1),2020-089A,2026-06-26T16:24:24.214176,1.00271701,.000245,0.0354,282.6583,157.6301,171.4129,0,U,47202,999,2051,0,-.224E-5,0
SXM-7,2020-096A,2026-06-26T15:34:07.202208,1.00271858,.0003941,0.0314,102.0610,17.2348,303.8445,0,U,47240,999,753,0,-.194E-5,0
CMS-01,2020-099A,2026-06-26T16:22:09.430176,1.00272535,.0003032,0.0348,95.1456,183.1378,325.0507,0,U,47256,999,2029,0,-.153E-5,0
TURKSAT 5A,2021-001A,2026-06-26T12:41:58.121952,1.00271749,.0000305,0.0176,60.0120,355.3191,80.7411,0,U,47306,999,2006,0,.165E-5,0
TJS-6,2021-010A,2026-06-26T16:49:23.129760,1.00273030,.0003393,0.2255,263.4606,222.5374,219.6456,0,U,47613,999,1990,0,.55E-6,0
SBIRS GEO-5 (USA 315),2021-042A,2026-06-26T11:17:19.162752,1.00272283,.000184,5.0903,329.1981,128.8844,79.6497,0,U,48618,999,1886,0,-.255E-5,0
FENGYUN 4B,2021-047A,2026-06-26T18:10:59.576736,1.00272960,.0005863,0.1767,78.6478,278.8756,294.8368,0,U,48808,999,1866,0,-.319E-5,0
SXM-8,2021-049A,2026-06-26T12:08:53.168352,1.00271705,.0005464,0.0169,14.8790,19.5134,337.3119,0,U,48838,999,1867,0,-.194E-5,0
TIANLIAN 1-05,2021-063A,2026-06-26T16:03:20.657376,1.00273562,.0000828,1.6181,80.6381,17.3534,74.4513,0,U,49011,999,1817,0,.118E-5,0
STAR ONE D2,2021-069A,2026-06-24T05:27:50.739840,1.00269113,.00020708,0.0158,349.5895,129.4688,165.1931,0,U,49055,999,1801,0,0,0
EUTELSAT QUANTUM,2021-069B,2026-06-26T14:29:26.261088,1.00270237,.000267,0.0131,330.6535,123.4823,85.6477,0,U,49056,999,1802,0,.138E-5,0
ZHONGXING-2E,2021-071A,2026-06-26T17:25:38.477856,1.00271025,.0002086,0.0435,155.2502,336.3231,142.7574,0,U,49062,999,1813,0,-.28E-5,0
