ELEKTRO-L 3             
1 44903U 19095A   26177.53815831 -.00000085  00000+0  00000+0 0  9993
2 44903   0.2811  81.9651 0001516   2.5316  99.8706  1.00272481 23801
SHIJIAN-20 (SJ-20)      
1 44910U 19097A   26177.24675458  .00000142  00000+0  00000+0 0  9993
2 44910   4.9414  74.9572 0015456  54.8421 278.1653  1.00273182 23787
TJS-5                   
1 44978U 20002A   26177.33051964 -.00000331  00000+0  00000+0 0  9996
2 44978   0.0163  29.0348 0007969  21.9852  89.9240  1.00270904 23806
GSAT-30                 
1 45026U 20005A   26177.68205359  .00000000  00000+0  00000+0 0  9993
2 45026   0.0193  22.0905 0003765  63.4226 157.8545  1.00270898 23605
EUTELSAT KONNECT        
1 45027U 20005B   26177.52437102  .00000060  00000+0  00000+0 0  9996
2 45027   0.0722  94.6619 0001766 125.3972 250.5602  1.00270027 24437
JCSAT-17                
1 45245U 20013A   26177.71502993 -.00000305  00000+0  00000+0 0  9992
2 45245   5.3917 356.9654 0003176  99.8761 211.4217  1.00271805 23324
GEO-KOMPSAT-2B          
1 45246U 20013B   26177.69108211 -.00000332  00000+0  00000+0 0  9995
2 45246   0.0410 227.0363 0000078 209.9871 214.8343  1.00273043 23372
BEIDOU-3 G2             
1 45344U 20017A   26177.75273124 -.00000132  00000+0  00000+0 0  9999
2 45344   2.8837  47.5039 0002541  38.6328 179.8110  1.00272051 23358
AEHF-6 (USA 298)        
1 45465U 20022B   26177.69290211 -.00000285  00000+0  00000+0 0  9997
2 45465   2.5276 301.2843 0042579  17.2776 343.4159  1.00268610 23105
BEIDOU-3 G3             
1 45807U 20040A   26177.75884733 -.00000345  00000+0  00000+0 0  9999
2 45807   2.4710  67.4792 0002643 328.6673 262.4520  1.00274671 22165
APSTAR-6D               
1 45863U 20045A   26177.26438200 -.00000306  00000+0  00000+0 0  9993
2 45863   0.0504 104.2604 0001972 333.2817  66.0426  1.00272663 21958
KOREASAT 116            
1 45920U 20048A   26177.68865543 -.00000351  00000+0  00000+0 0  9990
2 45920   0.0154 358.1525 0001205 109.4237 171.3701  1.00271902 21730
EXPRESS 103             
1 45985U 20053A   26177.68474027 -.00000269  00000+0  00000+0 0  9998
2 45985   0.0167 280.4345 0000567  46.9503 290.4287  1.00272557 21743
EXPRESS 80              
1 45986U 20053B   26177.01631047  .00000000  00000+0  00000+0 0  9995
2 45986   0.0206 335.8847 0002018 232.3281 151.7763  1.00271278 21722
BSAT-4B                 
1 46112U 20056A   26175.03864247 -.00000343  00000+0  00000+0 0  9991
2 46112   0.0287 148.8479 0004252 327.9577 279.1306  1.00271625 21451
MEV-2                   
1 46113U 20056B   26177.73670480  .00000000  00000+0  00000+0 0  9994
2 46113   0.0279 285.5120 0000164 186.0316  67.5246  1.00270839 80800
GALAXY 30 (G-30)        
1 46114U 20056C   26177.64089441  .00000000  00000+0  00000+0 0  9996
2 46114   0.0274  17.4127 0002295  76.1713 286.8850  1.00270787 21389
TIANTONG-1 2            
1 46916U 20082A   26177.76170734 -.00000344  00000+0  00000+0 0  9996
2 46916   0.7784 328.9219 0001727 116.8863 228.2291  1.00272592 20745
LUCAS (JDRS-1)          
1 47202U 20089A   26177.68361359 -.00000224  00000+0  00000+0 0  9995
2 47202   0.0354 282.6583 0002450 157.6301 171.4129  1.00271701 20519
SXM-7                   
1 47240U 20096A   26177.64869447 -.00000194  00000+0  00000+0 0  9998
2 47240   0.0314 102.0610 0003941  17.2348 303.8445  1.00271858  7533
CMS-01                  
1 47256U 20099A   26177.68205359 -.00000153  00000+0  00000+0 0  9993
2 47256   0.0348  95.1456 0003032 183.1378 325.0507  1.00272535 20290
TURKSAT 5A              
1 47306U 21001A   26177.52914493  .00000165  00000+0  00000+0 0  9994
2 47306   0.0176  60.0120 0000305 355.3191  80.7411  1.00271749 20060
TJS-6                   
1 47613U 21010A   26177.70096215  .00000055  00000+0  00000+0 0  9996
2 47613   0.2255 263.4606 0003393 222.5374 219.6456  1.00273030 19905
SBIRS GEO-5 (USA 315)   
1 48618U 21042A   26177.47036068 -.00000255  00000+0  00000+0 0  9994
2 48618   5.0903 329.1981 0001840 128.8844  79.6497  1.00272283 18867
FENGYUN 4B              
1 48808U 21047A   26177.75763399 -.00000319  00000+0  00000+0 0  9996
2 48808   0.1767  78.6478 0005863 278.8756 294.8368  1.00272960 18664
SXM-8                   
1 48838U 21049A   26177.50617093 -.00000194  00000+0  00000+0 0  9994
2 48838   0.0169  14.8790 0005464  19.5134 337.3119  1.00271705 18672
TIANLIAN 1-05           
1 49011U 21063A   26177.66898909  .00000118  00000+0  00000+0 0  9993
2 49011   1.6181  80.6381 0000828  17.3534  74.4513  1.00273562 18178
STAR ONE D2             
1 49055U 21069A   26175.22767060  .00000000  00000+0  00000+0 0  9990
2 49055   0.0158 349.5895 0002070 129.4688 165.1931  1.00269113 18018
EUTELSAT QUANTUM        
1 49056U 21069B   26177.60377617  .00000138  00000+0  00000+0 0  9992
2 49056   0.0131 330.6535 0002670 123.4823  85.6477  1.00270237 18024
ZHONGXING-2E            
1 49062U 21071A   26177.72613979 -.00000280  00000+0  00000+0 0  9998
2 49062   0.0435 155.2502 0002086 336.3231 142.7574  1.00271025 18133
